{"type": "FeatureCollection", "features": [ {"type": "Feature", "properties": {"norad_id": 33625, "name": "FENGYUN 1C DEB", "group": "fengyun-1c-debris", "lat": 30.94229688466747, "lon": -81.03864866898982, "alt_km": 528.9030061696722, "timestamp": "2025-12-09T05:43:21.012993+00:00", "meta": {"OBJECT_NAME": "FENGYUN 1C DEB", "OBJECT_ID": "1999-025DDJ", "EPOCH": "2025-12-01T01:24:31.444992", "MEAN_MOTION": 14.60592393, "ECCENTRICITY": 0.02269611, "INCLINATION": 98.6203, "RA_OF_ASC_NODE": 85.2252, "ARG_OF_PERICENTER": 171.2387, "MEAN_ANOMALY": 189.288, "EPHEMERIS_TYPE": 0, "CLASSIFICATION_TYPE": "U", "NORAD_CAT_ID": 33625, "ELEMENT_SET_NO": 999, "REV_AT_EPOCH": 61220, "BSTAR": 0.0017865562, "MEAN_MOTION_DOT": 0.00012473, "MEAN_MOTION_DDOT": 0}, "tle": {"line1": "1 33625U 99025DDJ 25335.05869728  .00012473  00000+0  17866-2 0  9993", "line2": "2 33625  98.6203  85.2252 0226961 171.2387 189.2880 14.60592393612207"}}, "geometry": {"type": "Point", "coordinates": [-81.03864866898982, 30.94229688466747]}}, {"type": "Feature", "properties": {"norad_id": 33630, "name": "FENGYUN 1C DEB", "group": "fengyun-1c-debris", "lat": 50.34285003912575, "lon": -79.9243938016511, "alt_km": 765.6762993090524, "timestamp": "2025-12-09T05:43:21.013003+00:00", "meta": {"OBJECT_NAME": "FENGYUN 1C DEB", "OBJECT_ID": "1999-025DDP", "EPOCH": "2025-12-05T13:03:03.290976", "MEAN_MOTION": 14.17702204, "ECCENTRICITY": 0.01355763, "INCLINATION": 98.6169, "RA_OF_ASC_NODE": 85.9506, "ARG_OF_PERICENTER": 88.759, "MEAN_ANOMALY": 272.9114, "EPHEMERIS_TYPE": 0, "CLASSIFICATION_TYPE": "U", "NORAD_CAT_ID": 33630, "ELEMENT_SET_NO": 999, "REV_AT_EPOCH": 64309, "BSTAR": 0.00069962399, "MEAN_MOTION_DOT": 1.519e-05, "MEAN_MOTION_DDOT": 0}, "tle": {"line1": "1 33630U 99025DDP 25339.54378809  .00001519  00000+0  69962-3 0  9996", "line2": "2 33630  98.6169  85.9506 0135576  88.7590 272.9114 14.17702204643099"}}, "geometry": {"type": "Point", "coordinates": [-79.9243938016511, 50.34285003912575]}}, {"type": "Feature", "properties": {"norad_id": 33633, "name": "FENGYUN 1C DEB", "group": "fengyun-1c-debris", "lat": 30.64942905777151, "lon": -97.1393385701375, "alt_km": 766.535045918331, "timestamp": "2025-12-09T05:43:21.013013+00:00", "meta": {"OBJECT_NAME": "FENGYUN 1C DEB", "OBJECT_ID": "1999-025DDS", "EPOCH": "2025-12-04T05:02:36.311136", "MEAN_MOTION": 14.19195748, "ECCENTRICITY": 0.0084138, "INCLINATION": 99.0589, "RA_OF_ASC_NODE": 72.2967, "ARG_OF_PERICENTER": 174.4266, "MEAN_ANOMALY": 217.7166, "EPHEMERIS_TYPE": 0, "CLASSIFICATION_TYPE": "U", "NORAD_CAT_ID": 33633, "ELEMENT_SET_NO": 999, "REV_AT_EPOCH": 90590, "BSTAR": 0.0055559, "MEAN_MOTION_DOT": 0.00012029, "MEAN_MOTION_DDOT": 0}, "tle": {"line1": "1 33633U 99025DDS 25338.21014249  .00012029  00000+0  55559-2 0  9991", "line2": "2 33633  99.0589  72.2967 0084138 174.4266 217.7166 14.19195748905909"}}, "geometry": {"type": "Point", "coordinates": [-97.1393385701375, 30.64942905777151]}}, {"type": "Feature", "properties": {"norad_id": 33637, "name": "FENGYUN 1C DEB", "group": "fengyun-1c-debris", "lat": 9.007951881036703, "lon": -150.37642124428208, "alt_km": 712.463823754927, "timestamp": "2025-12-09T05:43:21.013024+00:00", "meta": {"OBJECT_NAME": "FENGYUN 1C DEB", "OBJECT_ID": "1999-025DDW", "EPOCH": "2025-12-08T08:52:28.649856", "MEAN_MOTION": 14.36699046, "ECCENTRICITY": 0.00830416, "INCLINATION": 98.4927, "RA_OF_ASC_NODE": 27.4095, "ARG_OF_PERICENTER": 164.2696, "MEAN_ANOMALY": 196.11, "EPHEMERIS_TYPE": 0, "CLASSIFICATION_TYPE": "U", "NORAD_CAT_ID": 33637, "ELEMENT_SET_NO": 999, "REV_AT_EPOCH": 64775, "BSTAR": 0.0018222189, "MEAN_MOTION_DOT": 5.545e-05, "MEAN_MOTION_DDOT": 0}, "tle": {"line1": "1 33637U 99025DDW 25342.36977604  .00005545  00000+0  18222-2 0  9990", "line2": "2 33637  98.4927  27.4095 0083041 164.2696 196.1100 14.36699046647755"}}, "geometry": {"type": "Point", "coordinates": [-150.37642124428208, 9.007951881036703]}}, {"type": "Feature", "properties": {"norad_id": 33638, "name": "FENGYUN 1C DEB", "group": "fengyun-1c-debris", "lat": 70.74673438450125, "lon": -150.88793408220062, "alt_km": 1163.9417792565146, "timestamp": "2025-12-09T05:43:21.013034+00:00", "meta": {"OBJECT_NAME": "FENGYUN 1C DEB", "OBJECT_ID": "1999-025DDX", "EPOCH": "2025-12-06T22:59:54.556512", "MEAN_MOTION": 13.6928665, "ECCENTRICITY": 0.02653124, "INCLINATION": 98.4647, "RA_OF_ASC_NODE": 232.3409, "ARG_OF_PERICENTER": 288.5007, "MEAN_ANOMALY": 68.7482, "EPHEMERIS_TYPE": 0, "CLASSIFICATION_TYPE": "U", "NORAD_CAT_ID": 33638, "ELEMENT_SET_NO": 999, "REV_AT_EPOCH": 60836, "BSTAR": 0.0023450571, "MEAN_MOTION_DOT": 2.567e-05, "MEAN_MOTION_DDOT": 0}, "tle": {"line1": "1 33638U 99025DDX 25340.95827033  .00002567  00000+0  23451-2 0  9995", "line2": "2 33638  98.4647 232.3409 0265312 288.5007  68.7482 13.69286650608369"}}, "geometry": {"type": "Point", "coordinates": [-150.88793408220062, 70.74673438450125]}}, {"type": "Feature", "properties": {"norad_id": 33639, "name": "FENGYUN 1C DEB", "group": "fengyun-1c-debris", "lat": -16.722828233580824, "lon": -108.4869254186855, "alt_km": 769.6229309835826, "timestamp": "2025-12-09T05:43:21.013044+00:00", "meta": {"OBJECT_NAME": "FENGYUN 1C DEB", "OBJECT_ID": "1999-025DDY", "EPOCH": "2025-12-03T23:45:48.189312", "MEAN_MOTION": 14.40248408, "ECCENTRICITY": 0.00493059, "INCLINATION": 98.7136, "RA_OF_ASC_NODE": 68.813, "ARG_OF_PERICENTER": 315.1865, "MEAN_ANOMALY": 44.5345, "EPHEMERIS_TYPE": 0, "CLASSIFICATION_TYPE": "U", "NORAD_CAT_ID": 33639, "ELEMENT_SET_NO": 999, "REV_AT_EPOCH": 60456, "BSTAR": 0.0043899516, "MEAN_MOTION_DOT": 0.00014079, "MEAN_MOTION_DDOT": 0}, "tle": {"line1": "1 33639U 99025DDY 25337.99014108  .00014079  00000+0  43900-2 0  9999", "line2": "2 33639  98.7136  68.8130 0049305 315.1865  44.5345 14.40248408604567"}}, "geometry": {"type": "Point", "coordinates": [-108.4869254186855, -16.722828233580824]}}, {"type": "Feature", "properties": {"norad_id": 33640, "name": "FENGYUN 1C DEB", "group": "fengyun-1c-debris", "lat": -42.97460238605872, "lon": -65.81828564270603, "alt_km": 799.168592661159, "timestamp": "2025-12-09T05:43:21.013055+00:00", "meta": {"OBJECT_NAME": "FENGYUN 1C DEB", "OBJECT_ID": "1999-025DDZ", "EPOCH": "2025-12-07T19:02:56.918112", "MEAN_MOTION": 14.458694, "ECCENTRICITY": 0.00904679, "INCLINATION": 98.8406, "RA_OF_ASC_NODE": 284.3391, "ARG_OF_PERICENTER": 174.4583, "MEAN_ANOMALY": 185.763, "EPHEMERIS_TYPE": 0, "CLASSIFICATION_TYPE": "U", "NORAD_CAT_ID": 33640, "ELEMENT_SET_NO": 999, "REV_AT_EPOCH": 92271, "BSTAR": 0.00085213272, "MEAN_MOTION_DOT": 3.134e-05, "MEAN_MOTION_DDOT": 0}, "tle": {"line1": "1 33640U 99025DDZ 25341.79371433  .00003134  00000+0  85213-3 0  9995", "line2": "2 33640  98.8406 284.3391 0090467 174.4583 185.7630 14.45869400922713"}}, "geometry": {"type": "Point", "coordinates": [-65.81828564270603, -42.97460238605872]}}, {"type": "Feature", "properties": {"norad_id": 33648, "name": "FENGYUN 1C DEB", "group": "fengyun-1c-debris", "lat": -47.13025421429025, "lon": -8.460080422945186, "alt_km": 890.4690499199578, "timestamp": "2025-12-09T05:43:21.013065+00:00", "meta": {"OBJECT_NAME": "FENGYUN 1C DEB", "OBJECT_ID": "1999-025DEH", "EPOCH": "2025-12-07T06:19:28.985088", "MEAN_MOTION": 14.11771624, "ECCENTRICITY": 0.00686156, "INCLINATION": 98.7191, "RA_OF_ASC_NODE": 340.1048, "ARG_OF_PERICENTER": 189.7448, "MEAN_ANOMALY": 170.2398, "EPHEMERIS_TYPE": 0, "CLASSIFICATION_TYPE": "U", "NORAD_CAT_ID": 33648, "ELEMENT_SET_NO": 999, "REV_AT_EPOCH": 64299, "BSTAR": 0.00018339331, "MEAN_MOTION_DOT": 2.99e-06, "MEAN_MOTION_DDOT": 0}, "tle": {"line1": "1 33648U 99025DEH 25341.26352992  .00000299  00000+0  18339-3 0  9998", "line2": "2 33648  98.7191 340.1048 0068615 189.7448 170.2398 14.11771624642992"}}, "geometry": {"type": "Point", "coordinates": [-8.460080422945186, -47.13025421429025]}}, {"type": "Feature", "properties": {"norad_id": 33650, "name": "FENGYUN 1C DEB", "group": "fengyun-1c-debris", "lat": 14.24386947554674, "lon": 146.1289066107579, "alt_km": 900.5851691798107, "timestamp": "2025-12-09T05:43:21.013076+00:00", "meta": {"OBJECT_NAME": "FENGYUN 1C DEB", "OBJECT_ID": "1999-025DEK", "EPOCH": "2025-12-08T05:27:12.984768", "MEAN_MOTION": 13.89181804, "ECCENTRICITY": 0.01501243, "INCLINATION": 98.9884, "RA_OF_ASC_NODE": 147.4557, "ARG_OF_PERICENTER": 91.2923, "MEAN_ANOMALY": 270.5438, "EPHEMERIS_TYPE": 0, "CLASSIFICATION_TYPE": "U", "NORAD_CAT_ID": 33650, "ELEMENT_SET_NO": 999, "REV_AT_EPOCH": 68746, "BSTAR": 0.0012694502, "MEAN_MOTION_DOT": 1.648e-05, "MEAN_MOTION_DDOT": 0}, "tle": {"line1": "1 33650U 99025DEK 25342.22723362  .00001648  00000+0  12695-2 0  9998", "line2": "2 33650  98.9884 147.4557 0150124  91.2923 270.5438 13.89181804687460"}}, "geometry": {"type": "Point", "coordinates": [146.1289066107579, 14.24386947554674]}}, {"type": "Feature", "properties": {"norad_id": 33651, "name": "FENGYUN 1C DEB", "group": "fengyun-1c-debris", "lat": -71.06204327186859, "lon": -177.46641985791953, "alt_km": 915.3692040486012, "timestamp": "2025-12-09T05:43:21.013086+00:00", "meta": {"OBJECT_NAME": "FENGYUN 1C DEB", "OBJECT_ID": "1999-025DEL", "EPOCH": "2025-12-04T09:34:25.167360", "MEAN_MOTION": 14.2034714, "ECCENTRICITY": 0.0118053, "INCLINATION": 98.6575, "RA_OF_ASC_NODE": 24.1579, "ARG_OF_PERICENTER": 77.9387, "MEAN_ANOMALY": 283.4991, "EPHEMERIS_TYPE": 0, "CLASSIFICATION_TYPE": "U", "NORAD_CAT_ID": 33651, "ELEMENT_SET_NO": 999, "REV_AT_EPOCH": 64153, "BSTAR": 0.00028899, "MEAN_MOTION_DOT": 6.21e-06, "MEAN_MOTION_DDOT": 0}, "tle": {"line1": "1 33651U 99025DEL 25338.39890240  .00000621  00000+0  28899-3 0  9996", "line2": "2 33651  98.6575  24.1579 0118053  77.9387 283.4991 14.20347140641538"}}, "geometry": {"type": "Point", "coordinates": [-177.46641985791953, -71.06204327186859]}}]}